SENTINEL-6              
1 46984U 20086A   24036.65870197 -.00000065  00000+0 -18199-4 0  9999
2 46984  66.0416 126.5347 0007789 270.1649  89.8474 12.80930404149852
